#aV2023  8 31  0  0  0.00000000     288 DD+AD WGS84 FIT  NGA
## 2277 345600.00000000   300.00000000 60187 0.0000000000000
+   32     1  2  3  4  5  6  7  8  9 10 11 12 13 14 15 16 17
+         18 19 20 21 22 23 24 25 26 27 28 29 30 31 32  0  0
+          0  0  0  0  0  0  0  0  0  0  0  0  0  0  0  0  0
+          0  0  0  0  0  0  0  0  0  0  0  0  0  0  0  0  0
+          0  0  0  0  0  0  0  0  0  0  0  0  0  0  0  0  0
++         2  2  2  2  2  2  2  2  2  2  2  2  2  2  2  2  2
++         2  2  2  2  2  2  2  2  2  2  2  2  2  2  2  0  0
++         0  0  0  0  0  0  0  0  0  0  0  0  0  0  0  0  0
++         0  0  0  0  0  0  0  0  0  0  0  0  0  0  0  0  0
++         0  0  0  0  0  0  0  0  0  0  0  0  0  0  0  0  0
%c cc cc ccc ccc cccc cccc cccc cccc ccccc ccccc ccccc ccccc
%c cc cc ccc ccc cccc cccc cccc cccc ccccc ccccc ccccc ccccc
%f  0.0000000  0.000000000  0.00000000000  0.000000000000000
%f  0.0000000  0.000000000  0.00000000000  0.000000000000000
%i    0    0    0    0      0      0      0      0         0
%i    0    0    0    0      0      0      0      0         0
/*      NGA, ST. LOUIS,MO.                                  
/*   EPHEMERIS COMPUTED FROM 2 DAYS OF DATA                 
/*   EPOCHA v8 SMOOTHER                                     
/*   G2139 IERS2010 SATIGS SATAPC                           
*  2023  8 31  8 15  0.00000000
P  1  13350.768768  -9062.864013  20675.680410    166.780989                    
V  1   1482.114485  27026.634251  11037.696618     -0.011450                    
P  2  15216.181936  -1593.031304  22214.735248   -559.426402                    
V  2   3384.648292  26770.594934   -241.107619      0.043017                    
P  3  23188.943720 -12496.980056   2735.177459   -160.265199                    
V  3  -1862.159840   3897.076574  31999.690269      0.194615                    
P  4  18975.523614  -3788.195177 -18238.365987    141.923773                    
V  4  19396.728849  12672.017303  17420.660771      0.113290                    
P  5 -21104.241206   1041.830510 -16338.806304   -140.893293                    
V  5  15717.897626 -13028.658062 -21273.947758     -0.014644                    
P  6  -5701.135161 -24768.546876  -7486.850097    558.248366                    
V  6   1569.385839  -9640.547982  30535.094195     -0.060421                    
P  7   6322.997047 -23248.776415 -10149.550083     80.510212                    
V  7   3807.080312  13616.402060 -28025.330961     -0.106465                    
P  8  24499.401430   4262.850989   9801.826120   -139.849693                    
V  8  10155.622699   7536.228154 -28052.472030     -0.019013                    
P  9  10743.259320 -11549.936698 -21454.073784    -72.454783                    
V  9  24048.163125  12416.522535   5331.071559      0.100498                    
P 10  -1320.545228  17064.905973  20397.482502    -51.471720                    
V 10 -22076.032163  12881.612590 -12627.244987     -0.015523                    
P 11 -12402.869828 -14974.433502 -18103.062448   -346.045656                    
V 11   1640.520715 -22968.779851  17814.420719     -0.178939                    
P 12 -24350.213307   8351.582032   6095.885412   -419.269698                    
V 12   5843.893858  -6249.095830  30601.085764     -0.044302                    
P 13 -22815.796314 -13290.391151   3605.893379    566.782801                    
V 13  -2542.730593  -4666.160091 -31397.884583      0.046204                    
P 14   5118.764066 -18417.224260  18393.078727    170.589094                    
V 14  21041.386712 -10421.436495 -16474.538077      0.115102                    
P 15 -24580.851812   -922.468783   9847.982099     72.944189                    
V 15 -11354.637565  -7383.988725 -27449.387392      0.036483                    
P 16  18585.375180   5073.812998 -18781.648515   -460.918730                    
V 16 -19966.385724  11564.200289 -16468.812187      0.052686                    
P 17  -5797.613217 -18364.375307  18675.676553    723.352190                    
V 17  20189.975683  10741.503280  17342.002798      0.004272                    
P 18  -5243.878871  24488.933028  -8571.159079   -401.309564                    
V 18  -2598.431004 -10862.908485 -29611.849756     -0.129416                    
P 19 -13750.202575 -19218.564850  12250.240088    365.031537                    
V 19  14120.492151   7190.124102  26357.153479      0.051644                    
P 20 -13874.602247  -7879.040486 -21170.734142    414.360999                    
V 20  19574.304327 -18666.741844  -6056.561180     -0.020057                    
P 21  15689.459146   2043.425575  21942.797548    149.805669                    
V 21   3474.824654  26304.568898  -4166.110290     -0.006799                    
P 22  -1994.971035 -15918.111172  21668.827104    131.093677                    
V 22  23649.168740 -11709.533669  -6297.128254     -0.074475                    
P 23 -13533.180508  19181.555118  12260.374406     62.010122                    
V 23 -14097.659531   7002.463199 -26691.703803      0.049810                    
P 24 -15106.270370   4276.730469  21022.795042   -305.833109                    
V 24  -4186.722887 -27395.921121   2938.808309     -0.110638                    
P 25 -18735.518514  17630.639204  -6325.575404    465.195764                    
V 25  -8162.181356   1582.140446  30343.977784      0.020895                    
P 26   9901.336874  12426.305838 -21408.663091    230.689233                    
V 26 -21774.230166  15982.986441   -447.703288     -0.016667                    
P 27  23231.600185  13266.732055  -1598.166271    -31.469208                    
V 27  -2557.430963   1242.680033 -31522.796297     -0.064983                    
P 28      0.000000      0.000000      0.000000 999999.999999                    
V 28      0.000000      0.000000      0.000000 999999.999999                    
P 29 -11505.662065  10169.243839 -21730.454017   -608.679364                    
V 29 -23080.892753 -14808.170514   5200.897380     -0.005742                    
P 30   -151.439038 -26389.741023  -1062.173245   -491.934966                    
V 30   3892.971394   1370.851782 -31319.565357      0.032450                    
P 31  10826.432528  19152.600400 -14754.164159   -222.681037                    
V 31  -2073.638730  18647.440738  23386.246075     -0.005778                    
P 32  11095.264563  18285.668336  16053.859616   -550.055636                    
V 32 -18578.683042  -7547.991520  21480.980838     -0.064458                    
EOF
